{"type": "FeatureCollection", "features": [ {"type": "Feature", "properties": {"norad_id": 37418, "name": "FENGYUN 1C DEB", "group": "fengyun-1c-debris", "lat": -75.76064995941789, "lon": -81.94863117042578, "alt_km": 942.1050118344428, "timestamp": "2025-12-16T10:53:45.758811+00:00", "meta": {"OBJECT_NAME": "FENGYUN 1C DEB", "OBJECT_ID": "1999-025EGL", "EPOCH": "2025-12-14T23:05:36.441312", "MEAN_MOTION": 11.9514329, "ECCENTRICITY": 0.10770942, "INCLINATION": 98.6128, "RA_OF_ASC_NODE": 240.39, "ARG_OF_PERICENTER": 315.5082, "MEAN_ANOMALY": 36.4187, "EPHEMERIS_TYPE": 0, "CLASSIFICATION_TYPE": "U", "NORAD_CAT_ID": 37418, "ELEMENT_SET_NO": 999, "REV_AT_EPOCH": 49511, "BSTAR": 0.0027835423, "MEAN_MOTION_DOT": 1.13e-05, "MEAN_MOTION_DDOT": 0}, "tle": {"line1": "1 37418U 99025EGL 25348.96222733  .00001130  00000+0  27835-2 0  9995", "line2": "2 37418  98.6128 240.3900 1077094 315.5082  36.4187 11.95143290495113"}}, "geometry": {"type": "Point", "coordinates": [-81.94863117042578, -75.76064995941789]}}, {"type": "Feature", "properties": {"norad_id": 37420, "name": "FENGYUN 1C DEB", "group": "fengyun-1c-debris", "lat": -15.746601898872619, "lon": 157.8062425925239, "alt_km": 881.5288778326376, "timestamp": "2025-12-16T10:53:45.758821+00:00", "meta": {"OBJECT_NAME": "FENGYUN 1C DEB", "OBJECT_ID": "1999-025EGN", "EPOCH": "2025-12-08T04:40:09.470784", "MEAN_MOTION": 13.9973792, "ECCENTRICITY": 0.00707955, "INCLINATION": 98.8619, "RA_OF_ASC_NODE": 332.3305, "ARG_OF_PERICENTER": 288.8881, "MEAN_ANOMALY": 70.4618, "EPHEMERIS_TYPE": 0, "CLASSIFICATION_TYPE": "U", "NORAD_CAT_ID": 37420, "ELEMENT_SET_NO": 999, "REV_AT_EPOCH": 59701, "BSTAR": 0.00086941135, "MEAN_MOTION_DOT": 1.257e-05, "MEAN_MOTION_DDOT": 0}, "tle": {"line1": "1 37420U 99025EGN 25342.19455406  .00001257  00000+0  86941-3 0  9996", "line2": "2 37420  98.8619 332.3305 0070795 288.8881  70.4618 13.99737920597017"}}, "geometry": {"type": "Point", "coordinates": [157.8062425925239, -15.746601898872619]}}, {"type": "Feature", "properties": {"norad_id": 37421, "name": "FENGYUN 1C DEB", "group": "fengyun-1c-debris", "lat": 71.01485171290017, "lon": 151.80271223892916, "alt_km": 833.6290687244054, "timestamp": "2025-12-16T10:53:45.758832+00:00", "meta": {"OBJECT_NAME": "FENGYUN 1C DEB", "OBJECT_ID": "1999-025EGP", "EPOCH": "2025-12-15T14:41:43.867392", "MEAN_MOTION": 13.40533483, "ECCENTRICITY": 0.04092682, "INCLINATION": 98.8874, "RA_OF_ASC_NODE": 304.0103, "ARG_OF_PERICENTER": 78.2755, "MEAN_ANOMALY": 286.3988, "EPHEMERIS_TYPE": 0, "CLASSIFICATION_TYPE": "U", "NORAD_CAT_ID": 37421, "ELEMENT_SET_NO": 999, "REV_AT_EPOCH": 60984, "BSTAR": 0.00076410299, "MEAN_MOTION_DOT": 6.52e-06, "MEAN_MOTION_DDOT": 0}, "tle": {"line1": "1 37421U 99025EGP 25349.61231328  .00000652  00000+0  76410-3 0  9994", "line2": "2 37421  98.8874 304.0103 0409268  78.2755 286.3988 13.40533483609842"}}, "geometry": {"type": "Point", "coordinates": [151.80271223892916, 71.01485171290017]}}, {"type": "Feature", "properties": {"norad_id": 37423, "name": "FENGYUN 1C DEB", "group": "fengyun-1c-debris", "lat": -32.33729288579516, "lon": 46.21280709735694, "alt_km": 909.5563603750998, "timestamp": "2025-12-16T10:53:45.758842+00:00", "meta": {"OBJECT_NAME": "FENGYUN 1C DEB", "OBJECT_ID": "1999-025EGR", "EPOCH": "2025-12-13T09:41:36.608352", "MEAN_MOTION": 14.07556679, "ECCENTRICITY": 0.00494568, "INCLINATION": 98.7863, "RA_OF_ASC_NODE": 37.6275, "ARG_OF_PERICENTER": 157.774, "MEAN_ANOMALY": 202.5588, "EPHEMERIS_TYPE": 0, "CLASSIFICATION_TYPE": "U", "NORAD_CAT_ID": 37423, "ELEMENT_SET_NO": 999, "REV_AT_EPOCH": 63619, "BSTAR": 0.0010796385, "MEAN_MOTION_DOT": 1.799e-05, "MEAN_MOTION_DDOT": 0}, "tle": {"line1": "1 37423U 99025EGR 25347.40389593  .00001799  00000+0  10796-2 0  9996", "line2": "2 37423  98.7863  37.6275 0049456 157.7740 202.5588 14.07556679636196"}}, "geometry": {"type": "Point", "coordinates": [46.21280709735694, -32.33729288579516]}}, {"type": "Feature", "properties": {"norad_id": 37424, "name": "FENGYUN 1C DEB", "group": "fengyun-1c-debris", "lat": -20.404632649087844, "lon": 120.96677187304762, "alt_km": 777.0677313993028, "timestamp": "2025-12-16T10:53:45.758853+00:00", "meta": {"OBJECT_NAME": "FENGYUN 1C DEB", "OBJECT_ID": "1999-025EGS", "EPOCH": "2025-12-10T14:24:58.325184", "MEAN_MOTION": 14.17832081, "ECCENTRICITY": 0.0215746, "INCLINATION": 97.2028, "RA_OF_ASC_NODE": 113.5139, "ARG_OF_PERICENTER": 288.8478, "MEAN_ANOMALY": 68.9416, "EPHEMERIS_TYPE": 0, "CLASSIFICATION_TYPE": "U", "NORAD_CAT_ID": 37424, "ELEMENT_SET_NO": 999, "REV_AT_EPOCH": 68543, "BSTAR": 0.0014046, "MEAN_MOTION_DOT": 3.573e-05, "MEAN_MOTION_DDOT": 0}, "tle": {"line1": "1 37424U 99025EGS 25344.60067506  .00003573  00000+0  14046-2 0  9997", "line2": "2 37424  97.2028 113.5139 0215746 288.8478  68.9416 14.17832081685438"}}, "geometry": {"type": "Point", "coordinates": [120.96677187304762, -20.404632649087844]}}, {"type": "Feature", "properties": {"norad_id": 37427, "name": "FENGYUN 1C DEB", "group": "fengyun-1c-debris", "lat": 12.223946723860813, "lon": 130.83271390340994, "alt_km": 564.473189237432, "timestamp": "2025-12-16T10:53:45.758863+00:00", "meta": {"OBJECT_NAME": "FENGYUN 1C DEB", "OBJECT_ID": "1999-025EGV", "EPOCH": "2025-12-15T15:36:19.704384", "MEAN_MOTION": 14.98096448, "ECCENTRICITY": 0.0187913, "INCLINATION": 98.6201, "RA_OF_ASC_NODE": 131.8285, "ARG_OF_PERICENTER": 288.244, "MEAN_ANOMALY": 69.8409, "EPHEMERIS_TYPE": 0, "CLASSIFICATION_TYPE": "U", "NORAD_CAT_ID": 37427, "ELEMENT_SET_NO": 999, "REV_AT_EPOCH": 60366, "BSTAR": 0.00028306034, "MEAN_MOTION_DOT": 4.742e-05, "MEAN_MOTION_DDOT": 0}, "tle": {"line1": "1 37427U 99025EGV 25349.65022806  .00004742  00000+0  28306-3 0  9998", "line2": "2 37427  98.6201 131.8285 0187913 288.2440  69.8409 14.98096448603666"}}, "geometry": {"type": "Point", "coordinates": [130.83271390340994, 12.223946723860813]}}, {"type": "Feature", "properties": {"norad_id": 37428, "name": "FENGYUN 1C DEB", "group": "fengyun-1c-debris", "lat": 77.29301254989888, "lon": 175.7243760249984, "alt_km": 728.5977854274561, "timestamp": "2025-12-16T10:53:45.758873+00:00", "meta": {"OBJECT_NAME": "FENGYUN 1C DEB", "OBJECT_ID": "1999-025EGW", "EPOCH": "2025-12-14T08:18:44.705664", "MEAN_MOTION": 14.34657068, "ECCENTRICITY": 0.0056813, "INCLINATION": 97.722, "RA_OF_ASC_NODE": 210.8336, "ARG_OF_PERICENTER": 94.0763, "MEAN_ANOMALY": 266.6921, "EPHEMERIS_TYPE": 0, "CLASSIFICATION_TYPE": "U", "NORAD_CAT_ID": 37428, "ELEMENT_SET_NO": 999, "REV_AT_EPOCH": 63459, "BSTAR": 0.0018586443, "MEAN_MOTION_DOT": 5.32e-05, "MEAN_MOTION_DDOT": 0}, "tle": {"line1": "1 37428U 99025EGW 25348.34635076  .00005320  00000+0  18586-2 0  9994", "line2": "2 37428  97.7220 210.8336 0056813  94.0763 266.6921 14.34657068634591"}}, "geometry": {"type": "Point", "coordinates": [175.7243760249984, 77.29301254989888]}}, {"type": "Feature", "properties": {"norad_id": 37430, "name": "FENGYUN 1C DEB", "group": "fengyun-1c-debris", "lat": 75.47107549892408, "lon": 28.034378138354185, "alt_km": 774.8104309006612, "timestamp": "2025-12-16T10:53:45.758883+00:00", "meta": {"OBJECT_NAME": "FENGYUN 1C DEB", "OBJECT_ID": "1999-025EGY", "EPOCH": "2025-12-05T03:58:16.719456", "MEAN_MOTION": 14.28846273, "ECCENTRICITY": 0.001883, "INCLINATION": 98.7668, "RA_OF_ASC_NODE": 53.2332, "ARG_OF_PERICENTER": 93.5332, "MEAN_ANOMALY": 266.8003, "EPHEMERIS_TYPE": 0, "CLASSIFICATION_TYPE": "U", "NORAD_CAT_ID": 37430, "ELEMENT_SET_NO": 999, "REV_AT_EPOCH": 61593, "BSTAR": 0.0038447795, "MEAN_MOTION_DOT": 9.683e-05, "MEAN_MOTION_DDOT": 0}, "tle": {"line1": "1 37430U 99025EGY 25339.16547129  .00009683  00000+0  38448-2 0  9993", "line2": "2 37430  98.7668  53.2332 0018830  93.5332 266.8003 14.28846273615930"}}, "geometry": {"type": "Point", "coordinates": [28.034378138354185, 75.47107549892408]}}, {"type": "Feature", "properties": {"norad_id": 37432, "name": "FENGYUN 1C DEB", "group": "fengyun-1c-debris", "lat": 61.103788339095125, "lon": -161.24275629999718, "alt_km": 828.2002138478811, "timestamp": "2025-12-16T10:53:45.758893+00:00", "meta": {"OBJECT_NAME": "FENGYUN 1C DEB", "OBJECT_ID": "1999-025EHA", "EPOCH": "2025-12-14T18:41:25.668384", "MEAN_MOTION": 14.5345933, "ECCENTRICITY": 0.01818124, "INCLINATION": 98.1845, "RA_OF_ASC_NODE": 2.0052, "ARG_OF_PERICENTER": 281.6104, "MEAN_ANOMALY": 76.4736, "EPHEMERIS_TYPE": 0, "CLASSIFICATION_TYPE": "U", "NORAD_CAT_ID": 37432, "ELEMENT_SET_NO": 999, "REV_AT_EPOCH": 8406, "BSTAR": 0.00074213172, "MEAN_MOTION_DOT": 3.795e-05, "MEAN_MOTION_DDOT": 0}, "tle": {"line1": "1 37432U 99025EHA 25348.77876931  .00003795  00000+0  74213-3 0  9997", "line2": "2 37432  98.1845   2.0052 0181812 281.6104  76.4736 14.53459330 84066"}}, "geometry": {"type": "Point", "coordinates": [-161.24275629999718, 61.103788339095125]}}, {"type": "Feature", "properties": {"norad_id": 37435, "name": "FENGYUN 1C DEB", "group": "fengyun-1c-debris", "lat": -21.920814905259366, "lon": 30.205476367354805, "alt_km": 796.3899701592718, "timestamp": "2025-12-16T10:53:45.758924+00:00", "meta": {"OBJECT_NAME": "FENGYUN 1C DEB", "OBJECT_ID": "1999-025EHD", "EPOCH": "2025-12-13T08:42:56.940192", "MEAN_MOTION": 14.22368341, "ECCENTRICITY": 0.00403043, "INCLINATION": 98.6487, "RA_OF_ASC_NODE": 23.6617, "ARG_OF_PERICENTER": 12.4728, "MEAN_ANOMALY": 347.7438, "EPHEMERIS_TYPE": 0, "CLASSIFICATION_TYPE": "U", "NORAD_CAT_ID": 37435, "ELEMENT_SET_NO": 999, "REV_AT_EPOCH": 88948, "BSTAR": 0.0015840008, "MEAN_MOTION_DOT": 3.512e-05, "MEAN_MOTION_DDOT": 0}, "tle": {"line1": "1 37435U 99025EHD 25347.36315903  .00003512  00000+0  15840-2 0  9998", "line2": "2 37435  98.6487  23.6617 0040304  12.4728 347.7438 14.22368341889483"}}, "geometry": {"type": "Point", "coordinates": [30.205476367354805, -21.920814905259366]}}]}